NORAD_CAT_ID,OBJECT_NAME,OBJECT_TYPE,EPOCH,MEAN_MOTION,ECCENTRICITY,INCLINATION,RA_OF_ASC_NODE,ARG_OF_PERICENTER,MEAN_ANOMALY,BSTAR,MEAN_MOTION_DOT,MEAN_MOTION_DDOT,TLE_LINE0,TLE_LINE1,TLE_LINE2,SEMIMAJOR_AXIS,PERIOD,APOGEE,PERIGEE,DECAYED
53145.0,STARLINK-4106,PAYLOAD,2022-12-22 14:07:46,15.08847642,0.0002494,53.2189,40.369,28.9345,331.1785,5.427600000000002e-05,5.76e-06,0.0,0 STARLINK-4106,1 53145U 22083P   22356.58873761  .00000576  00000-0  54276-4 0  9992,2 53145  53.2189  40.3690 0002494  28.9345 331.1785 15.08847642 24122,6917.857,95.437,541.447,537.997,0.0
53145.0,STARLINK-4106,PAYLOAD,2022-12-23 09:12:25,15.088240300000002,0.0002526,53.2188,36.8007,29.7191,330.3945,0.00014494,2.018e-05,0.0,0 STARLINK-4106,1 53145U 22083P   22357.38363371  .00002018  00000-0  14494-3 0  9992,2 53145  53.2188  36.8007 0002526  29.7191 330.3945 15.08824030 24874,6917.929,95.439,541.5419999999998,538.047,0.0
53145.0,STARLINK-4106,PAYLOAD,2022-12-23 12:23:12,15.08826203,0.0002552,53.2188,36.2059,30.0174,330.0964,0.00015805,2.227e-05,0.0,0 STARLINK-4106,1 53145U 22083P   22357.51611337  .00002227  00000-0  15805-3 0  9994,2 53145  53.2188  36.2059 0002552  30.0174 330.0964 15.08826203 24265,6917.9230000000025,95.438,541.553,538.0219999999998,0.0
53145.0,STARLINK-4106,PAYLOAD,2022-12-23 13:58:35,15.08827808,0.0002558,53.219,35.9089,30.7824,329.3318,0.00017357,2.474e-05,0.0,0 STARLINK-4106,1 53145U 22083P   22357.58235302  .00002474  00000-0  17357-3 0  9993,2 53145  53.2190  35.9089 0002558  30.7824 329.3318 15.08827808 24279,6917.918000000002,95.438,541.552,538.013,0.0
53145.0,STARLINK-4106,PAYLOAD,2022-12-24 02:41:39,15.08846705,0.0002583,53.2187,33.5299,30.9047,329.2096,0.00017633,2.52e-05,0.0,0 STARLINK-4106,1 53145U 22083P   22358.11226249  .00002520  00000-0  17633-3 0  9992,2 53145  53.2187  33.5299 0002583  30.9047 329.2096 15.08846705 24986,6917.86,95.437,541.512,537.938,0.0
53145.0,STARLINK-4106,PAYLOAD,2022-12-24 09:03:11,15.08850726,0.0002595,53.2188,32.3401,31.0534,329.0611,9.2314e-05,1.181e-05,0.0,0 STARLINK-4106,1 53145U 22083P   22358.37722110  .00001181  00000-0  92314-4 0  9990,2 53145  53.2188  32.3401 0002595  31.0534 329.0611 15.08850726 24399,6917.848000000001,95.437,541.508,537.9169999999998,0.0
53145.0,STARLINK-4106,PAYLOAD,2022-12-24 13:49:21,15.08844337,0.00025,53.2191,31.4491,28.2921,331.8207,4.8499e-05,4.84e-06,0.0,0 STARLINK-4106,1 53145U 22083P   22358.57594539  .00000484  00000-0  48499-4 0  9994,2 53145  53.2191  31.4491 0002500  28.2921 331.8207 15.08844337 25053,6917.8669999999975,95.437,541.462,538.003,0.0
53145.0,STARLINK-4106,PAYLOAD,2022-12-25 02:32:27,15.08836475,0.0002802,53.2182,29.0724,27.4904,332.6236,5.9285e-05,6.55e-06,0.0,0 STARLINK-4106,1 53145U 22083P   22359.10587080  .00000655  00000-0  59285-4 0  9992,2 53145  53.2182  29.0724 0002802  27.4904 332.6236 15.08836475 25136,6917.891,95.438,541.695,537.818,0.0
53145.0,STARLINK-4106,PAYLOAD,2022-12-25 10:29:23,15.08830435,0.0002733,53.2185,27.5842,27.4389,332.6747,1.2703e-05,-8.6e-07,0.0,0 STARLINK-4106,1 53145U 22083P   22359.43707642 -.00000086  00000-0  12703-4 0  9999,2 53145  53.2185  27.5842 0002733  27.4389 332.6747 15.08830435 25185,6917.91,95.438,541.665,537.884,0.0
53145.0,STARLINK-4106,PAYLOAD,2022-12-25 12:04:46,15.08830989,0.0002713,53.2184,27.2865,28.0716,332.0422,2.8298e-06,-2.43e-06,0.0,0 STARLINK-4106,1 53145U 22083P   22359.50331634 -.00000243  00000-0  28298-5 0  9993,2 53145  53.2184  27.2865 0002713  28.0716 332.0422 15.08830989 24564,6917.908,95.438,541.65,537.896,0.0
53145.0,STARLINK-4106,PAYLOAD,2022-12-26 11:55:33,15.0883789,0.0002609,53.2191,22.8255,27.015,333.0978,-7.4104e-05,-1.468e-05,0.0,0 STARLINK-4106,1 53145U 22083P   22360.49691637 -.00001468  00000-0 -74104-4 0  9992,2 53145  53.2191  22.8255 0002609  27.0150 333.0978 15.08837890 24713,6917.887,95.438,541.557,537.947,0.0
53145.0,STARLINK-4106,PAYLOAD,2022-12-26 18:17:05,15.08838475,0.0002648,53.219,21.6361,28.6657,331.4480000000001,7.7444e-05,9.44e-06,0.0,0 STARLINK-4106,1 53145U 22083P   22360.76187239  .00000944  00000-0  77444-4 0  9996,2 53145  53.2190  21.6361 0002648  28.6657 331.4480 15.08838475 25383,6917.885,95.438,541.582,537.918,0.0
53145.0,STARLINK-4106,PAYLOAD,2022-12-27 10:10:56,15.08854419,0.0002659,53.219,18.6622,25.9044,334.2081,7.0913e-05,8.41e-06,0.0,0 STARLINK-4106,1 53145U 22083P   22361.42426155  .00000841  00000-0  70913-4 0  9993,2 53145  53.2190  18.6622 0002659  25.9044 334.2081 15.08854419 25486,6917.8359999999975,95.437,541.5409999999998,537.862,0.0
53145.0,STARLINK-4106,PAYLOAD,2022-12-28 00:29:24,15.08848298,0.0002697,53.219,15.9859,28.1113,332.0025,0.00015437,2.17e-05,0.0,0 STARLINK-4106,1 53145U 22083P   22362.02042224  .00002170  00000-0  15437-3 0  9997,2 53145  53.2190  15.9859 0002697  28.1113 332.0025 15.08848298 25574,6917.855,95.437,541.586,537.854,0.0
53145.0,STARLINK-4106,PAYLOAD,2022-12-28 10:01:43,15.08838454,0.0002773999999999,53.2187,14.2014,28.4277,331.6867,8.7838e-05,1.11e-05,0.0,0 STARLINK-4106,1 53145U 22083P   22362.41786944  .00001110  00000-0  87838-4 0  9992,2 53145  53.2187  14.2014 0002774  28.4277 331.6867 15.08838454 25634,6917.885,95.438,541.669,537.831,0.0
53145.0,STARLINK-4106,PAYLOAD,2022-12-29 00:20:13,15.08822598,0.0002736,53.2193,11.5257,32.4957,327.6203,7.8279e-05,9.57e-06,0.0,0 STARLINK-4106,1 53145U 22083P   22363.01404220  .00000957  00000-0  78279-4 0  9990,2 53145  53.2193  11.5257 0002736  32.4957 327.6203 15.08822598 25729,6917.934,95.439,541.691,537.906,0.0
53145.0,STARLINK-4106,PAYLOAD,2022-12-29 01:55:36,15.08867112,0.0002227,53.2185,11.2267,28.8251,331.2864,-0.00046181,-7.636e-05,0.0,0 STARLINK-4106,1 53145U 22083P   22363.08028917 -.00007636  00000-0 -46181-3 0  9991,2 53145  53.2185  11.2267 0002227  28.8251 331.2864 15.08867112 25735,6917.7980000000025,95.436,541.203,538.122,0.0
53145.0,STARLINK-4106,PAYLOAD,2022-12-30 00:11:00,15.08833803,0.0002508999999999,53.2183,7.0634,30.162,329.9516,-8.369100000000001e-05,-1.62e-05,0.0,0 STARLINK-4106,1 53145U 22083P   22364.00764183 -.00001620  00000-0 -83691-4 0  9991,2 53145  53.2183   7.0634 0002509  30.1620 329.9516 15.08833803 25876,6917.899,95.438,541.5,538.029,0.0
53145.0,STARLINK-4106,PAYLOAD,2022-12-30 09:43:18,15.08843021,0.0002435999999999,53.218,5.2788,32.5269,327.5873,3.3051e-06,-2.36e-06,0.0,0 STARLINK-4106,1 53145U 22083P   22364.40507364 -.00000236  00000-0  33051-5 0  9998,2 53145  53.2180   5.2788 0002436  32.5269 327.5873 15.08843021 25937,6917.871,95.437,541.4209999999998,538.0509999999998,0.0
53145.0,STARLINK-4106,PAYLOAD,2022-12-30 17:40:13,15.0885119,0.0002585,53.2197,3.7939,31.4835,328.6311,0.00026015,3.856e-05,0.0,0 STARLINK-4106,1 53145U 22083P   22364.73626178  .00003856  00000-0  26015-3 0  9999,2 53145  53.2197   3.7939 0002585  31.4835 328.6311 15.08851190 25988,6917.846,95.437,541.499,537.923,0.0
53145.0,STARLINK-4106,PAYLOAD,2022-12-31 09:34:04,15.08849513,0.0002613,53.2189,0.823,9.1188,350.9851,0.00026029,3.858e-05,0.0,0 STARLINK-4106,1 53145U 22083P   22365.39866176  .00003858  00000-0  26029-3 0  9993,2 53145  53.2189   0.8230 0002613   9.1188 350.9851 15.08849513 26081,6917.851,95.437,541.524,537.909,0.0
53145.0,STARLINK-4106,PAYLOAD,2022-12-31 17:31:00,15.08855622,0.0003052,53.2183,359.3361,25.72,334.3944,8.026100000000001e-05,9.9e-06,0.0,0 STARLINK-4106,1 53145U 22083P   22365.72986313  .00000990  00000-0  80261-4 0  9999,2 53145  53.2183 359.3361 0003052  25.7200 334.3944 15.08855622 25502,6917.833000000001,95.437,541.809,537.586,0.0
53145.0,STARLINK-4106,PAYLOAD,2023-01-01 09:24:52,15.08836078,0.0002631999999999,53.2209,356.3604,29.1513,330.9625,-8.994e-05,-1.7199999999999998e-05,0.0,0 STARLINK-4106,1 53145U 22083P   23001.39227729 -.00001720  00000-0 -89940-4 0  9996,2 53145  53.2209 356.3604 0002632  29.1513 330.9625 15.08836078 26239,6917.892,95.438,541.578,537.937,0.0
53145.0,STARLINK-4106,PAYLOAD,2023-01-02 09:15:40,15.08836603,0.0002771,53.2193,351.9003,27.8626,332.2514,-0.00013569,-2.447e-05,0.0,0 STARLINK-4106,1 53145U 22083P   23002.38588181 -.00002447  00000-0 -13569-3 0  9998,2 53145  53.2193 351.9003 0002771  27.8626 332.2514 15.08836603 25751,6917.891,95.438,541.673,537.839,0.0
53145.0,STARLINK-4106,PAYLOAD,2023-01-02 23:34:08,15.08833267,0.0002689,53.2193,349.2242,26.0278,334.0849,0.00013434,1.85e-05,0.0,0 STARLINK-4106,1 53145U 22083P   23002.98203774  .00001850  00000-0  13434-3 0  9992,2 53145  53.2193 349.2242 0002689  26.0278 334.0849 15.08833267 26472,6917.901,95.438,541.626,537.906,0.0
53145.0,STARLINK-4106,PAYLOAD,2023-01-03 07:31:04,15.08830143,0.0002694,53.2192,347.7377,27.608,332.5055,0.00017932,2.566e-05,0.0,0 STARLINK-4106,1 53145U 22083P   23003.31324276  .00002566  00000-0  17932-3 0  9993,2 53145  53.2192 347.7377 0002694  27.6080 332.5055 15.08830143 25894,6917.911,95.438,541.639,537.9119999999998,0.0
53145.0,STARLINK-4106,PAYLOAD,2023-01-03 15:28:00,15.08830036,0.0002731999999999,53.2197,346.2507,27.2075,332.906,0.00021853,3.19e-05,0.0,0 STARLINK-4106,1 53145U 22083P   23003.64444514  .00003190  00000-0  21853-3 0  9998,2 53145  53.2197 346.2507 0002732  27.2075 332.9060 15.08830036 26578,6917.911,95.438,541.6659999999998,537.886,0.0
53145.0,STARLINK-4106,PAYLOAD,2023-01-04 05:46:28,15.08837804,0.0002713,53.2196,343.5746,26.7952,333.3179,0.00015043,2.106e-05,0.0,0 STARLINK-4106,1 53145U 22083P   23004.24060657  .00002106  00000-0  15043-3 0  9997,2 53145  53.2196 343.5746 0002713  26.7952 333.3179 15.08837804 26036,6917.887,95.438,541.629,537.875,0.0
53145.0,STARLINK-4106,PAYLOAD,2023-01-04 15:18:48,15.08829184,0.0002602,53.2198,341.7924,31.2649,328.8497,6.7979e-05,7.93e-06,0.0,0 STARLINK-4106,1 53145U 22083P   23004.63805622  .00000793  00000-0  67979-4 0  9995,2 53145  53.2198 341.7924 0002602  31.2649 328.8497 15.08829184 26727,6917.913000000001,95.438,541.578,537.9780000000002,0.0
